{
    "links": {
        "self": "http://www.neowsapp.com/rest/v1/neo/3339595?api_key=iIulBulltgU6a56xZRHN4H3l9WmuAYTsLGpBGhQ2"
    },
    "id": "3339595",
    "neo_reference_id": "3339595",
    "name": "(2006 QE89)",
    "designation": "2006 QE89",
    "nasa_jpl_url": "http://ssd.jpl.nasa.gov/sbdb.cgi?sstr=3339595",
    "absolute_magnitude_h": 20.9,
    "estimated_diameter": {
        "kilometers": {
            "estimated_diameter_min": 0.1756123185,
            "estimated_diameter_max": 0.3926810818
        },
        "meters": {
            "estimated_diameter_min": 175.6123184804,
            "estimated_diameter_max": 392.6810818086
        },
        "miles": {
            "estimated_diameter_min": 0.1091204019,
            "estimated_diameter_max": 0.2440006365
        },
        "feet": {
            "estimated_diameter_min": 576.1559189633,
            "estimated_diameter_max": 1288.3238004408
        }
    },
    "is_potentially_hazardous_asteroid": false,
    "close_approach_data": [
        {
            "close_approach_date": "2006-08-25",
            "close_approach_date_full": "2006-Aug-25 00:27",
            "epoch_date_close_approach": 1156465620000,
            "relative_velocity": {
                "kilometers_per_second": "16.4821593246",
                "kilometers_per_hour": "59335.773568452",
                "miles_per_hour": "36868.9421931306"
            },
            "miss_distance": {
                "astronomical": "0.0972022337",
                "lunar": "37.8116689093",
                "kilometers": "14541247.120762219",
                "miles": "9035511.9785838622"
            },
            "orbiting_body": "Earth"
        }
    ],
    "orbital_data": {
        "orbit_id": "15",
        "orbit_determination_date": "2017-04-06 09:16:49",
        "first_observation_date": "2006-08-14",
        "last_observation_date": "2006-09-07",
        "data_arc_in_days": 24,
        "observations_used": 40,
        "orbit_uncertainty": "8",
        "minimum_orbit_intersection": ".0931368",
        "jupiter_tisserand_invariant": "3.607",
        "epoch_osculation": "2453975.5",
        "eccentricity": ".5652908409153063",
        "semi_major_axis": "1.95362224998334",
        "inclination": "20.97288600178835",
        "ascending_node_longitude": "319.8009399962164",
        "orbital_period": "997.3769246451401",
        "perihelion_distance": ".8492574854594049",
        "perihelion_argument": "75.7964746071205",
        "aphelion_distance": "3.057987014507275",
        "perihelion_time": "2454020.972357447815",
        "mean_anomaly": "343.5868985167892",
        "mean_motion": ".3609467906309197",
        "equinox": "J2000",
        "orbit_class": {
            "orbit_class_type": "APO",
            "orbit_class_description": "Near-Earth asteroid orbits which cross the Earth’s orbit similar to that of 1862 Apollo",
            "orbit_class_range": "a (semi-major axis) > 1.0 AU; q (perihelion) < 1.017 AU"
        }
    },
    "is_sentry_object": false
}